{"type":"FeatureCollection","features":[{"type":"Feature","geometry":{"type":"Point","coordinates":[4.27010851714505,52.0780439568548]},"properties":{"Name":"Bart Smit","Adres":"Fahrenheitstraat 591","Huisnummer":591,"Postcode":"2561DB","Plaats":"Den Haag","Info":"Bart Smit is een winkelformule die voorop loopt in het aanbieden van spe..."},"sensors":{}},{"type":"Feature","geometry":{"type":"Point","coordinates":[4.23426823498533,52.0537182321327]},"properties":{"Name":"Bart Smit","Adres":"Arnold Spoelstraat 106-108","Huisnummer":106,"Postcode":"2553CN","Plaats":"Den Haag","Info":"Bart Smit is een winkelformule die voorop loopt in het aanbieden van spe..."},"sensors":{}},{"type":"Feature","geometry":{"type":"Point","coordinates":[4.38528059615961,52.0893099491419]},"properties":{"Name":"Bart Smit","Adres":"Jasmijn 3-5","Huisnummer":5,"Postcode":"2262AN","Plaats":"Leidschendam","Info":"Bart Smit is een winkelformule die voorop loopt in het aanbieden van spe..."},"sensors":{}},{"type":"Feature","geometry":{"type":"Point","coordinates":[4.27672906280748,52.0935602642508]},"properties":{"Name":"Bart Smit","Adres":"Fred. Hendriklaan 112-114","Huisnummer":112,"Postcode":"2582BG","Plaats":"Den Haag","Info":"Bart Smit is een winkelformule die voorop loopt in het aanbieden van spe..."},"sensors":{}},{"type":"Feature","geometry":{"type":"Point","coordinates":[4.31605935079904,52.0365419865817]},"properties":{"Name":"Bart Smit","Adres":"Prins Willem Alexander Promenade 59","Huisnummer":59,"Postcode":"2284DH","Plaats":"Rijswijk","Info":"Bart Smit is een winkelformule die voorop loopt in het aanbieden van spe..."},"sensors":{}},{"type":"Feature","geometry":{"type":"Point","coordinates":[4.39184596486294,52.0445638748028]},"properties":{"Name":"Bart Smit","Adres":"Korte Baan 21","Huisnummer":21,"Postcode":"2632GL","Plaats":"Nootdorp","Info":"Bart Smit is een winkelformule die voorop loopt in het aanbieden van spe..."},"sensors":{}},{"type":"Feature","geometry":{"type":"Point","coordinates":[4.27639466057356,52.0480876895468]},"properties":{"Name":"Bart Smit","Adres":"Leyweg 657L","Huisnummer":657,"Postcode":"2545GK","Plaats":"Den Haag","Info":"Bart Smit is een winkelformule die voorop loopt in het aanbieden van spe..."},"sensors":{}},{"type":"Feature","geometry":{"type":"Point","coordinates":[4.30842853196713,52.0759420430906]},"properties":{"Name":"Bart Smit","Adres":"Grote Markt 4","Huisnummer":4,"Postcode":"2511BG","Plaats":"Den Haag","Info":"Bart Smit is een winkelformule die voorop loopt in het aanbieden van spe..."},"sensors":{}},{"type":"Feature","geometry":{"type":"Point","coordinates":[4.28270916179278,52.1146608091131]},"properties":{"Name":"Bart Smit","Adres":"Strandweg 61","Huisnummer":61,"Postcode":"2586JL","Plaats":"Scheveningen","Info":"Bart Smit is een winkelformule die voorop loopt in het aanbieden van spe..."},"sensors":{}},{"type":"Feature","geometry":{"type":"Point","coordinates":[4.35895663951653,52.0758836255882]},"properties":{"Name":"Bart Smit","Adres":"Kon. Julianalaan 229","Huisnummer":229,"Postcode":"2273JG","Plaats":"Voorburg","Info":"Bart Smit is een winkelformule die voorop loopt in het aanbieden van spe..."},"sensors":{}},{"type":"Feature","geometry":{"type":"Point","coordinates":[4.35558277782729,52.0402792450137]},"properties":{"Name":"BrickFever","Adres":"Laan van Haamstede 17","Huisnummer":17,"Postcode":"2497GE","Plaats":"Den Haag","Info":"BrickFever- Stenen heb je nooit genoeg! Brickfever is uw LEGO specialist"},"sensors":{}},{"type":"Feature","geometry":{"type":"Point","coordinates":[4.28894369196659,52.1116217426609]},"properties":{"Name":"Bridgewinkel Alert","Adres":"Gentsestraat 24","Huisnummer":24,"Postcode":"2587HT","Plaats":"Den Haag"},"sensors":{}},{"type":"Feature","geometry":{"type":"Point","coordinates":[4.27504569650864,52.0686433717466]},"properties":{"Name":"Ella","Adres":"Loosduinseweg 985","Huisnummer":985,"Postcode":"2571BA","Plaats":"Den Haag"},"sensors":{}},{"type":"Feature","geometry":{"type":"Point","coordinates":[4.27505060510772,52.0919797283615]},"properties":{"Name":"Game Mania","Adres":"Frederik Hendriklaan 141","Huisnummer":141,"Postcode":"2582BZ","Plaats":"Den Haag"},"sensors":{}},{"type":"Feature","geometry":{"type":"Point","coordinates":[4.28406224491395,52.0665680273071]},"properties":{"Name":"Gamestore E-Plaza","Adres":"Dierenselaan 139","Huisnummer":139,"Postcode":"2573KE","Plaats":"Den Haag"},"sensors":{}},{"type":"Feature","geometry":{"type":"Point","coordinates":[4.37051407893597,52.0418168353911]},"properties":{"Name":"Intertoys","Adres":"Oude Kustlijn 121","Huisnummer":121,"Postcode":"2496SK","Plaats":"Den Haag"},"sensors":{}},{"type":"Feature","geometry":{"type":"Point","coordinates":[4.29522721710955,52.0834234465493]},"properties":{"Name":"Brinkers Technische Modelbouw B.V","Adres":"Hugo de Grootstraat 63","Huisnummer":63,"Postcode":"2518EC","Plaats":"Den Haag"},"sensors":{}},{"type":"Feature","geometry":{"type":"Point","coordinates":[4.33082186295421,52.0602858026212]},"properties":{"Name":"HobbyManiac","Adres":"Pasteurstraat 163","Huisnummer":163,"Postcode":"2522RH","Plaats":"s-Gravenhage"},"sensors":{}},{"type":"Feature","geometry":{"type":"Point","coordinates":[4.28412954399681,52.0773114901678]},"properties":{"Name":"Intertoys","Adres":"Weimarstraat 66-68A","Huisnummer":66,"Postcode":"2562HA","Plaats":"Den Haag"},"sensors":{}},{"type":"Feature","geometry":{"type":"Point","coordinates":[4.33941057382287,52.0874092671371]},"properties":{"Name":"Intertoys","Adres":"Theresiastraat 280-284","Huisnummer":280,"Postcode":"2593AX","Plaats":"Den Haag"},"sensors":{}},{"type":"Feature","geometry":{"type":"Point","coordinates":[4.30824091866787,52.0767530775921]},"properties":{"Name":"Games Workshop Limited","Adres":"Schoolstraat 12B","Huisnummer":12,"Postcode":"2511AX","Plaats":"Den Haag"},"sensors":{}},{"type":"Feature","geometry":{"type":"Point","coordinates":[4.28186900563993,52.0699837807264]},"properties":{"Name":"Hobby Modelbouw-De Houtloods","Adres":"Loosduinsekade 240","Huisnummer":240,"Postcode":"2571BZ","Plaats":"Den Haag"},"sensors":{}},{"type":"Feature","geometry":{"type":"Point","coordinates":[4.28172277310472,52.067083805565]},"properties":{"Name":"Intertoys","Adres":"Apeldoornselaan 151","Huisnummer":151,"Postcode":"2573LG","Plaats":"Den Haag"},"sensors":{}},{"type":"Feature","geometry":{"type":"Point","coordinates":[4.3144419406444,52.0775561330605]},"properties":{"Name":"Intertoys","Adres":"Grote Marktstraat 68","Huisnummer":68,"Postcode":"2511BJ","Plaats":"Den Haag"},"sensors":{}},{"type":"Feature","geometry":{"type":"Point","coordinates":[4.37592183968392,52.0451756441552]},"properties":{"Name":"JipToys Lego webshop","Adres":"Sperwersingel 45-b","Huisnummer":45,"Postcode":"2496NE","Plaats":"Den Haag","Info":"JipToys Lego webshop die zich, naast de dozen, specialiseert in minifiguren"},"sensors":{}},{"type":"Feature","geometry":{"type":"Point","coordinates":[4.39502494227179,52.0654896001475]},"properties":{"Name":"Kidzdealz","Adres":"Frans Robbelaan 7","Huisnummer":7,"Postcode":"2493CN","Plaats":"Den Haag"},"sensors":{}},{"type":"Feature","geometry":{"type":"Point","coordinates":[4.31891852469429,52.0702202899112]},"properties":{"Name":"Kries Goederen","Adres":"Hoefkade 76","Huisnummer":76,"Postcode":"2526CA","Plaats":"Den Haag"},"sensors":{}},{"type":"Feature","geometry":{"type":"Point","coordinates":[4.27753011891429,52.0879624670198]},"properties":{"Name":"Kikkerkoning De","Adres":"Aert van der Goesstraat 48","Huisnummer":48,"Postcode":"2582AL","Plaats":"Den Haag"},"sensors":{}},{"type":"Feature","geometry":{"type":"Point","coordinates":[4.329765118543,52.0934290725492]},"properties":{"Name":"Lolamar","Adres":"Van Alkemadelaan 9","Huisnummer":9,"Postcode":"2597AA","Plaats":"Den Haag"},"sensors":{}},{"type":"Feature","geometry":{"type":"Point","coordinates":[4.3061901256378,52.0787053565437]},"properties":{"Name":"MÃ¤rklin Store Den Haag","Adres":"Prinsestraat 25","Huisnummer":25,"Postcode":"2513CA","Plaats":"Den Haag"},"sensors":{}},{"type":"Feature","geometry":{"type":"Point","coordinates":[4.32027254117851,52.0979930097907]},"properties":{"Name":"Lammerts van Bueren W J","Adres":"Van Montfoortlaan 8","Huisnummer":8,"Postcode":"2596SR","Plaats":"Den Haag"},"sensors":{}},{"type":"Feature","geometry":{"type":"Point","coordinates":[4.30821417756589,52.078602588184]},"properties":{"Name":"R&r Kinderwinkel","Adres":"Annastraat 11","Huisnummer":11,"Postcode":"2513AT","Plaats":"Den Haag"},"sensors":{}},{"type":"Feature","geometry":{"type":"Point","coordinates":[4.27747211721265,52.1032024867596]},"properties":{"Name":"Monstertjes en Kinderlampjes","Adres":"Prins Willemstraat 26A","Huisnummer":26,"Postcode":"2584HV","Plaats":"Den Haag","Info":"De 'Monstertjes' is een waar speelgoedparadijs waar iedereen, jong en oud"},"sensors":{}},{"type":"Feature","geometry":{"type":"Point","coordinates":[4.27920262296275,52.1057451307308]},"properties":{"Name":"Scheveningen","Adres":"Badhuisstraat 19","Huisnummer":19,"Postcode":"2584HD","Plaats":"Den Haag"},"sensors":{}},{"type":"Feature","geometry":{"type":"Point","coordinates":[4.2795420175853,52.0763746532429]},"properties":{"Name":"Rood met Witte Stippen","Adres":"Beeklaan 303","Huisnummer":303,"Postcode":"2562AH","Plaats":"Den Haag"},"sensors":{}},{"type":"Feature","geometry":{"type":"Point","coordinates":[4.28399997613466,52.0774644703415]},"properties":{"Name":"Gameshop","Adres":"Weimarstraat 61","Huisnummer":61,"Postcode":"2562GR","Plaats":"Den Haag"},"sensors":{}},{"type":"Feature","geometry":{"type":"Point","coordinates":[4.3170701806031,52.0791089697106]},"properties":{"Name":"Mascot Speelgoed","Adres":"Korte Houtstraat 15","Huisnummer":15,"Postcode":"2511CC","Plaats":"Den Haag"},"sensors":{}},{"type":"Feature","geometry":{"type":"Point","coordinates":[4.300051528056,52.0845485726045]},"properties":{"Name":"Matruschka Speelgoed en Natuurtextiel","Adres":"Anna Paulownaplein 11","Huisnummer":11,"Postcode":"2518BK","Plaats":"Den Haag"},"sensors":{}},{"type":"Feature","geometry":{"type":"Point","coordinates":[4.27085813142596,52.0766225283387]},"properties":{"Name":"Speelgoedkeizer De","Adres":"Laan van Meerdervoort 421","Huisnummer":421,"Postcode":"2563AS","Plaats":"Den Haag","Info":"Bent u op zoek naar leuk speelgoed voor uw kinderen of kleinkinderen,"},"sensors":{}},{"type":"Feature","geometry":{"type":"Point","coordinates":[4.27920262296275,52.1057451307308]},"properties":{"Name":"Speelgoedwinkel Het Groene Draakje","Adres":"Badhuisstraat 15-19","Huisnummer":15,"Postcode":"2584HD","Plaats":"Den Haag"},"sensors":{}},{"type":"Feature","geometry":{"type":"Point","coordinates":[4.31859856590244,52.0666941194323]},"properties":{"Name":"ToysXL","Adres":"Waldorpstraat 164","Huisnummer":164,"Postcode":"2521CD","Plaats":"Den Haag"},"sensors":{}},{"type":"Feature","geometry":{"type":"Point","coordinates":[4.2929815006327,52.083655808989]},"properties":{"Name":"Spellenhuis","Adres":"Zoutmanstraat 94","Huisnummer":94,"Postcode":"2518GT","Plaats":"Den Haag"},"sensors":{}},{"type":"Feature","geometry":{"type":"Point","coordinates":[4.30825656027901,52.0765581922523]},"properties":{"Name":"Speelgoedmagazijn Roodkapje","Adres":"Schoolstraat 16","Huisnummer":16,"Postcode":"2511AX","Plaats":"Den Haag"},"sensors":{}},{"type":"Feature","geometry":{"type":"Point","coordinates":[4.34377783701938,52.0883640979258]},"properties":{"Name":"Stoom & Spoor","Adres":"Stuyvesantstraat 322","Huisnummer":322,"Postcode":"2593GW","Plaats":"Den Haag"},"sensors":{}},{"type":"Feature","geometry":{"type":"Point","coordinates":[4.28222918601316,52.0749827247941]},"properties":{"Name":"Speelplus Agenturen","Adres":"Newtonstraat 337","Huisnummer":337,"Postcode":"2562KK","Plaats":"Den Haag","Info":"Speelplus Agenturen in Son behandelt de speelgoed agentuur voor de Benelux"},"sensors":{}},{"type":"Feature","geometry":{"type":"Point","coordinates":[4.34299327023532,52.0750417529004]},"properties":{"Name":"Teamspeler","Adres":"Koningin Wilhelminalaan 460","Huisnummer":460,"Postcode":"2274BK","Plaats":"Voorburg"},"sensors":{}},{"type":"Feature","geometry":{"type":"Point","coordinates":[4.31703061704764,52.0791491584954]},"properties":{"Name":"Tabletop Kingdom","Adres":"Korte Houtstraat 13","Huisnummer":13,"Postcode":"2511CC","Plaats":"Den Haag"},"sensors":{}},{"type":"Feature","geometry":{"type":"Point","coordinates":[4.27328842703926,52.0811959007504]},"properties":{"Name":"Tiny Tanah","Adres":"Pijnboomstraat 11","Huisnummer":11,"Postcode":"2565ZH","Plaats":"Den Haag"},"sensors":{}}]}